{
  "type": "FeatureCollection",
  "name": "Drone_Inspection_Mission",
  "features": [
    {
      "type": "Feature",
      "geometry": {
        "type": "LineString",
        "coordinates": [
          [
            77.20758678391032,
            28.613489339197038,
            218.0
          ],
          [
            77.20758678391032,
            28.613489339197038,
            258.0
          ],
          [
            77.20738189589751,
            28.614343694722663,
            258.0
          ],
          [
            77.20738189589751,
            28.614343694722663,
            238.0
          ],
          [
            77.20738189589751,
            28.614343694722663,
            258.0
          ],
          [
            77.20738189589751,
            28.61470342336503,
            258.0
          ],
          [
            77.20738189589751,
            28.61470342336503,
            231.0
          ],
          [
            77.20738189589751,
            28.61470342336503,
            258.0
          ],
          [
            77.20818095914747,
            28.61515308416799,
            258.0
          ],
          [
            77.20818095914747,
            28.61515308416799,
            231.0
          ],
          [
            77.20818095914747,
            28.61515308416799,
            258.0
          ],
          [
            77.21025032807688,
            28.613894033919703,
            258.0
          ],
          [
            77.21025032807688,
            28.613894033919703,
            227.5
          ],
          [
            77.21025032807688,
            28.613894033919703,
            258.0
          ],
          [
            77.21112110213134,
            28.61515308416799,
            258.0
          ],
          [
            77.21112110213134,
            28.61515308416799,
            234.5
          ],
          [
            77.21112110213134,
            28.61515308416799,
            258.0
          ],
          [
            77.20758678391032,
            28.613489339197038,
            258.0
          ],
          [
            77.20758678391032,
            28.613489339197038,
            218.0
          ]
        ]
      },
      "properties": {
        "type": "drone_flight_path_3d",
        "base_hub": "TX_101",
        "total_distance_m": 1286.7566524815104,
        "flight_minutes": 5.180743026003146,
        "targets_count": 5,
        "color": [
          217,
          70,
          239,
          240
        ],
        "width": 3.0
      }
    }
  ]
}