{
  "type": "FeatureCollection",
  "name": "Electrical_Network_Wiring",
  "features": [
    {
      "type": "Feature",
      "geometry": {
        "type": "LineString",
        "coordinates": [
          [
            77.209021,
            28.611960492466977,
            228.0
          ],
          [
            77.20758678391032,
            28.613489339197038,
            223.0
          ]
        ]
      },
      "properties": {
        "type": "transmission_feeder_11kv",
        "id": "TRUNK_TX_101",
        "name": "11kV Feeder to Distribution Transformer TX-101 (Zone 1 Commercial)",
        "color": [
          29,
          78,
          216,
          255
        ],
        "width": 4.0
      }
    },
    {
      "type": "Feature",
      "geometry": {
        "type": "LineString",
        "coordinates": [
          [
            77.209021,
            28.611960492466977,
            228.0
          ],
          [
            77.2104552160897,
            28.613489339197038,
            221.0
          ]
        ]
      },
      "properties": {
        "type": "transmission_feeder_11kv",
        "id": "TRUNK_TX_102",
        "name": "11kV Feeder to Distribution Transformer TX-102 (Zone 2 Residential)",
        "color": [
          29,
          78,
          216,
          255
        ],
        "width": 4.0
      }
    },
    {
      "type": "Feature",
      "geometry": {
        "type": "LineString",
        "coordinates": [
          [
            77.20758678391032,
            28.613489339197038,
            222.5
          ],
          [
            77.20692089786867,
            28.614982213062863,
            222.5
          ]
        ]
      },
      "properties": {
        "type": "lv_street_dist_line",
        "id": "FEED_TX_101_TO_POLE01",
        "name": "Feeder Drop to Pole 1 (N)",
        "color": [
          71,
          85,
          105,
          240
        ],
        "width": 2.5
      }
    },
    {
      "type": "Feature",
      "geometry": {
        "type": "LineString",
        "coordinates": [
          [
            77.20692089786867,
            28.614982213062863,
            222.5
          ],
          [
            77.20738189589751,
            28.614982213062863,
            222.5
          ]
        ]
      },
      "properties": {
        "type": "lv_street_dist_line",
        "id": "ST1_N_1_2",
        "name": "Street 1 Overhead Main N",
        "color": [
          71,
          85,
          105,
          240
        ],
        "width": 2.5
      }
    },
    {
      "type": "Feature",
      "geometry": {
        "type": "LineString",
        "coordinates": [
          [
            77.20738189589751,
            28.614982213062863,
            222.5
          ],
          [
            77.20758678391032,
            28.614982213062863,
            222.5
          ]
        ]
      },
      "properties": {
        "type": "lv_street_dist_line",
        "id": "ST1_N_2_3",
        "name": "Street 1 Overhead Main N",
        "color": [
          71,
          85,
          105,
          240
        ],
        "width": 2.5
      }
    },
    {
      "type": "Feature",
      "geometry": {
        "type": "LineString",
        "coordinates": [
          [
            77.20758678391032,
            28.614982213062863,
            222.5
          ],
          [
            77.20779167192313,
            28.614982213062863,
            222.5
          ]
        ]
      },
      "properties": {
        "type": "lv_street_dist_line",
        "id": "ST1_N_3_4",
        "name": "Street 1 Overhead Main N",
        "color": [
          71,
          85,
          105,
          240
        ],
        "width": 2.5
      }
    },
    {
      "type": "Feature",
      "geometry": {
        "type": "LineString",
        "coordinates": [
          [
            77.20779167192313,
            28.614982213062863,
            222.5
          ],
          [
            77.20818095914747,
            28.614982213062863,
            222.5
          ]
        ]
      },
      "properties": {
        "type": "lv_street_dist_line",
        "id": "ST1_N_4_5",
        "name": "Street 1 Overhead Main N",
        "color": [
          71,
          85,
          105,
          240
        ],
        "width": 2.5
      }
    },
    {
      "type": "Feature",
      "geometry": {
        "type": "LineString",
        "coordinates": [
          [
            77.20818095914747,
            28.614982213062863,
            222.5
          ],
          [
            77.20835511395836,
            28.614982213062863,
            222.5
          ]
        ]
      },
      "properties": {
        "type": "lv_street_dist_line",
        "id": "ST1_N_5_6",
        "name": "Street 1 Overhead Main N",
        "color": [
          71,
          85,
          105,
          240
        ],
        "width": 2.5
      }
    },
    {
      "type": "Feature",
      "geometry": {
        "type": "LineString",
        "coordinates": [
          [
            77.20738189589751,
            28.614982213062863,
            222.5
          ],
          [
            77.20738189589751,
            28.614172823617537,
            222.5
          ]
        ]
      },
      "properties": {
        "type": "lv_street_dist_line",
        "id": "AVE1_N_2_8",
        "name": "Avenue A Tie Line N",
        "color": [
          71,
          85,
          105,
          240
        ],
        "width": 2.5
      }
    },
    {
      "type": "Feature",
      "geometry": {
        "type": "LineString",
        "coordinates": [
          [
            77.20692089786867,
            28.614172823617537,
            222.5
          ],
          [
            77.20738189589751,
            28.614172823617537,
            222.5
          ]
        ]
      },
      "properties": {
        "type": "lv_street_dist_line",
        "id": "ST2_N_7_8",
        "name": "Street 2 Overhead Main N",
        "color": [
          71,
          85,
          105,
          240
        ],
        "width": 2.5
      }
    },
    {
      "type": "Feature",
      "geometry": {
        "type": "LineString",
        "coordinates": [
          [
            77.20738189589751,
            28.614172823617537,
            222.5
          ],
          [
            77.20758678391032,
            28.614172823617537,
            222.5
          ]
        ]
      },
      "properties": {
        "type": "lv_street_dist_line",
        "id": "ST2_N_8_9",
        "name": "Street 2 Overhead Main N",
        "color": [
          71,
          85,
          105,
          240
        ],
        "width": 2.5
      }
    },
    {
      "type": "Feature",
      "geometry": {
        "type": "LineString",
        "coordinates": [
          [
            77.20758678391032,
            28.614172823617537,
            222.5
          ],
          [
            77.20779167192313,
            28.614172823617537,
            222.5
          ]
        ]
      },
      "properties": {
        "type": "lv_street_dist_line",
        "id": "ST2_N_9_10",
        "name": "Street 2 Overhead Main N",
        "color": [
          71,
          85,
          105,
          240
        ],
        "width": 2.5
      }
    },
    {
      "type": "Feature",
      "geometry": {
        "type": "LineString",
        "coordinates": [
          [
            77.20779167192313,
            28.614172823617537,
            222.5
          ],
          [
            77.20818095914747,
            28.614172823617537,
            222.5
          ]
        ]
      },
      "properties": {
        "type": "lv_street_dist_line",
        "id": "ST2_N_10_11",
        "name": "Street 2 Overhead Main N",
        "color": [
          71,
          85,
          105,
          240
        ],
        "width": 2.5
      }
    },
    {
      "type": "Feature",
      "geometry": {
        "type": "LineString",
        "coordinates": [
          [
            77.20818095914747,
            28.614172823617537,
            222.5
          ],
          [
            77.20835511395836,
            28.614172823617537,
            222.5
          ]
        ]
      },
      "properties": {
        "type": "lv_street_dist_line",
        "id": "ST2_N_11_12",
        "name": "Street 2 Overhead Main N",
        "color": [
          71,
          85,
          105,
          240
        ],
        "width": 2.5
      }
    },
    {
      "type": "Feature",
      "geometry": {
        "type": "LineString",
        "coordinates": [
          [
            77.20818095914747,
            28.614982213062863,
            222.5
          ],
          [
            77.20818095914747,
            28.614172823617537,
            222.5
          ]
        ]
      },
      "properties": {
        "type": "lv_street_dist_line",
        "id": "AVE2_N_5_11",
        "name": "Avenue B Tie Line N",
        "color": [
          71,
          85,
          105,
          240
        ],
        "width": 2.5
      }
    },
    {
      "type": "Feature",
      "geometry": {
        "type": "LineString",
        "coordinates": [
          [
            77.2104552160897,
            28.613489339197038,
            220.5
          ],
          [
            77.20968688604165,
            28.614982213062863,
            222.5
          ]
        ]
      },
      "properties": {
        "type": "lv_street_dist_line",
        "id": "FEED_TX_102_TO_POLE01",
        "name": "Feeder Drop to Pole 1 (S)",
        "color": [
          71,
          85,
          105,
          240
        ],
        "width": 2.5
      }
    },
    {
      "type": "Feature",
      "geometry": {
        "type": "LineString",
        "coordinates": [
          [
            77.20968688604165,
            28.614982213062863,
            222.5
          ],
          [
            77.20986104085254,
            28.614982213062863,
            222.5
          ]
        ]
      },
      "properties": {
        "type": "lv_street_dist_line",
        "id": "ST1_S_1_2",
        "name": "Street 1 Overhead Main S",
        "color": [
          71,
          85,
          105,
          240
        ],
        "width": 2.5
      }
    },
    {
      "type": "Feature",
      "geometry": {
        "type": "LineString",
        "coordinates": [
          [
            77.20986104085254,
            28.614982213062863,
            222.5
          ],
          [
            77.21025032807688,
            28.614982213062863,
            222.5
          ]
        ]
      },
      "properties": {
        "type": "lv_street_dist_line",
        "id": "ST1_S_2_3",
        "name": "Street 1 Overhead Main S",
        "color": [
          71,
          85,
          105,
          240
        ],
        "width": 2.5
      }
    },
    {
      "type": "Feature",
      "geometry": {
        "type": "LineString",
        "coordinates": [
          [
            77.21025032807688,
            28.614982213062863,
            222.5
          ],
          [
            77.2104552160897,
            28.614982213062863,
            222.5
          ]
        ]
      },
      "properties": {
        "type": "lv_street_dist_line",
        "id": "ST1_S_3_4",
        "name": "Street 1 Overhead Main S",
        "color": [
          71,
          85,
          105,
          240
        ],
        "width": 2.5
      }
    },
    {
      "type": "Feature",
      "geometry": {
        "type": "LineString",
        "coordinates": [
          [
            77.2104552160897,
            28.614982213062863,
            222.5
          ],
          [
            77.2106601041025,
            28.614982213062863,
            222.5
          ]
        ]
      },
      "properties": {
        "type": "lv_street_dist_line",
        "id": "ST1_S_4_5",
        "name": "Street 1 Overhead Main S",
        "color": [
          71,
          85,
          105,
          240
        ],
        "width": 2.5
      }
    },
    {
      "type": "Feature",
      "geometry": {
        "type": "LineString",
        "coordinates": [
          [
            77.2106601041025,
            28.614982213062863,
            222.5
          ],
          [
            77.21112110213134,
            28.614982213062863,
            222.5
          ]
        ]
      },
      "properties": {
        "type": "lv_street_dist_line",
        "id": "ST1_S_5_6",
        "name": "Street 1 Overhead Main S",
        "color": [
          71,
          85,
          105,
          240
        ],
        "width": 2.5
      }
    },
    {
      "type": "Feature",
      "geometry": {
        "type": "LineString",
        "coordinates": [
          [
            77.20986104085254,
            28.614982213062863,
            222.5
          ],
          [
            77.20986104085254,
            28.614172823617537,
            222.5
          ]
        ]
      },
      "properties": {
        "type": "lv_street_dist_line",
        "id": "AVE1_S_2_8",
        "name": "Avenue A Tie Line S",
        "color": [
          71,
          85,
          105,
          240
        ],
        "width": 2.5
      }
    },
    {
      "type": "Feature",
      "geometry": {
        "type": "LineString",
        "coordinates": [
          [
            77.20968688604165,
            28.614172823617537,
            222.5
          ],
          [
            77.20986104085254,
            28.614172823617537,
            222.5
          ]
        ]
      },
      "properties": {
        "type": "lv_street_dist_line",
        "id": "ST2_S_7_8",
        "name": "Street 2 Overhead Main S",
        "color": [
          71,
          85,
          105,
          240
        ],
        "width": 2.5
      }
    },
    {
      "type": "Feature",
      "geometry": {
        "type": "LineString",
        "coordinates": [
          [
            77.20986104085254,
            28.614172823617537,
            222.5
          ],
          [
            77.21025032807688,
            28.614172823617537,
            222.5
          ]
        ]
      },
      "properties": {
        "type": "lv_street_dist_line",
        "id": "ST2_S_8_9",
        "name": "Street 2 Overhead Main S",
        "color": [
          71,
          85,
          105,
          240
        ],
        "width": 2.5
      }
    },
    {
      "type": "Feature",
      "geometry": {
        "type": "LineString",
        "coordinates": [
          [
            77.21025032807688,
            28.614172823617537,
            222.5
          ],
          [
            77.2104552160897,
            28.614172823617537,
            222.5
          ]
        ]
      },
      "properties": {
        "type": "lv_street_dist_line",
        "id": "ST2_S_9_10",
        "name": "Street 2 Overhead Main S",
        "color": [
          71,
          85,
          105,
          240
        ],
        "width": 2.5
      }
    },
    {
      "type": "Feature",
      "geometry": {
        "type": "LineString",
        "coordinates": [
          [
            77.2104552160897,
            28.614172823617537,
            222.5
          ],
          [
            77.2106601041025,
            28.614172823617537,
            222.5
          ]
        ]
      },
      "properties": {
        "type": "lv_street_dist_line",
        "id": "ST2_S_10_11",
        "name": "Street 2 Overhead Main S",
        "color": [
          71,
          85,
          105,
          240
        ],
        "width": 2.5
      }
    },
    {
      "type": "Feature",
      "geometry": {
        "type": "LineString",
        "coordinates": [
          [
            77.2106601041025,
            28.614172823617537,
            222.5
          ],
          [
            77.21112110213134,
            28.614172823617537,
            222.5
          ]
        ]
      },
      "properties": {
        "type": "lv_street_dist_line",
        "id": "ST2_S_11_12",
        "name": "Street 2 Overhead Main S",
        "color": [
          71,
          85,
          105,
          240
        ],
        "width": 2.5
      }
    },
    {
      "type": "Feature",
      "geometry": {
        "type": "LineString",
        "coordinates": [
          [
            77.2106601041025,
            28.614982213062863,
            222.5
          ],
          [
            77.2106601041025,
            28.614172823617537,
            222.5
          ]
        ]
      },
      "properties": {
        "type": "lv_street_dist_line",
        "id": "AVE2_S_5_11",
        "name": "Avenue B Tie Line S",
        "color": [
          71,
          85,
          105,
          240
        ],
        "width": 2.5
      }
    },
    {
      "type": "Feature",
      "geometry": {
        "type": "LineString",
        "coordinates": [
          [
            77.20692089786867,
            28.614982213062863,
            222.0
          ],
          [
            77.20692089786867,
            28.61515308416799,
            225.0
          ]
        ]
      },
      "properties": {
        "type": "service_drop",
        "id": "DROP_CONS_N_001",
        "consumer_id": "CONS_N_001",
        "color": [
          180,
          83,
          9,
          220
        ],
        "width": 1.5
      }
    },
    {
      "type": "Feature",
      "geometry": {
        "type": "LineString",
        "coordinates": [
          [
            77.20692089786867,
            28.614982213062863,
            222.0
          ],
          [
            77.20692089786867,
            28.61470342336503,
            228.5
          ]
        ]
      },
      "properties": {
        "type": "service_drop",
        "id": "DROP_CONS_N_002",
        "consumer_id": "CONS_N_002",
        "color": [
          180,
          83,
          9,
          220
        ],
        "width": 1.5
      }
    },
    {
      "type": "Feature",
      "geometry": {
        "type": "LineString",
        "coordinates": [
          [
            77.20738189589751,
            28.614982213062863,
            222.0
          ],
          [
            77.20738189589751,
            28.61515308416799,
            225.0
          ]
        ]
      },
      "properties": {
        "type": "service_drop",
        "id": "DROP_CONS_N_003",
        "consumer_id": "CONS_N_003",
        "color": [
          180,
          83,
          9,
          220
        ],
        "width": 1.5
      }
    },
    {
      "type": "Feature",
      "geometry": {
        "type": "LineString",
        "coordinates": [
          [
            77.20738189589751,
            28.614982213062863,
            222.0
          ],
          [
            77.20738189589751,
            28.61470342336503,
            225.0
          ]
        ]
      },
      "properties": {
        "type": "service_drop",
        "id": "DROP_CONS_N_004",
        "consumer_id": "CONS_N_004",
        "color": [
          180,
          83,
          9,
          220
        ],
        "width": 1.5
      }
    },
    {
      "type": "Feature",
      "geometry": {
        "type": "LineString",
        "coordinates": [
          [
            77.20758678391032,
            28.614982213062863,
            222.0
          ],
          [
            77.20758678391032,
            28.61515308416799,
            225.0
          ]
        ]
      },
      "properties": {
        "type": "service_drop",
        "id": "DROP_CONS_N_005",
        "consumer_id": "CONS_N_005",
        "color": [
          180,
          83,
          9,
          220
        ],
        "width": 1.5
      }
    },
    {
      "type": "Feature",
      "geometry": {
        "type": "LineString",
        "coordinates": [
          [
            77.20758678391032,
            28.614982213062863,
            222.0
          ],
          [
            77.20758678391032,
            28.61470342336503,
            221.5
          ]
        ]
      },
      "properties": {
        "type": "service_drop",
        "id": "DROP_CONS_N_006",
        "consumer_id": "CONS_N_006",
        "color": [
          180,
          83,
          9,
          220
        ],
        "width": 1.5
      }
    },
    {
      "type": "Feature",
      "geometry": {
        "type": "LineString",
        "coordinates": [
          [
            77.20779167192313,
            28.614982213062863,
            222.0
          ],
          [
            77.20779167192313,
            28.61515308416799,
            221.5
          ]
        ]
      },
      "properties": {
        "type": "service_drop",
        "id": "DROP_CONS_N_007",
        "consumer_id": "CONS_N_007",
        "color": [
          180,
          83,
          9,
          220
        ],
        "width": 1.5
      }
    },
    {
      "type": "Feature",
      "geometry": {
        "type": "LineString",
        "coordinates": [
          [
            77.20779167192313,
            28.614982213062863,
            222.0
          ],
          [
            77.20779167192313,
            28.61470342336503,
            225.0
          ]
        ]
      },
      "properties": {
        "type": "service_drop",
        "id": "DROP_CONS_N_008",
        "consumer_id": "CONS_N_008",
        "color": [
          180,
          83,
          9,
          220
        ],
        "width": 1.5
      }
    },
    {
      "type": "Feature",
      "geometry": {
        "type": "LineString",
        "coordinates": [
          [
            77.20818095914747,
            28.614982213062863,
            222.0
          ],
          [
            77.20818095914747,
            28.61515308416799,
            225.0
          ]
        ]
      },
      "properties": {
        "type": "service_drop",
        "id": "DROP_CONS_N_009",
        "consumer_id": "CONS_N_009",
        "color": [
          180,
          83,
          9,
          220
        ],
        "width": 1.5
      }
    },
    {
      "type": "Feature",
      "geometry": {
        "type": "LineString",
        "coordinates": [
          [
            77.20818095914747,
            28.614982213062863,
            222.0
          ],
          [
            77.20818095914747,
            28.61470342336503,
            228.5
          ]
        ]
      },
      "properties": {
        "type": "service_drop",
        "id": "DROP_CONS_N_010",
        "consumer_id": "CONS_N_010",
        "color": [
          180,
          83,
          9,
          220
        ],
        "width": 1.5
      }
    },
    {
      "type": "Feature",
      "geometry": {
        "type": "LineString",
        "coordinates": [
          [
            77.20835511395836,
            28.614982213062863,
            222.0
          ],
          [
            77.20835511395836,
            28.61515308416799,
            228.5
          ]
        ]
      },
      "properties": {
        "type": "service_drop",
        "id": "DROP_CONS_N_011",
        "consumer_id": "CONS_N_011",
        "color": [
          180,
          83,
          9,
          220
        ],
        "width": 1.5
      }
    },
    {
      "type": "Feature",
      "geometry": {
        "type": "LineString",
        "coordinates": [
          [
            77.20835511395836,
            28.614982213062863,
            222.0
          ],
          [
            77.20835511395836,
            28.61470342336503,
            225.0
          ]
        ]
      },
      "properties": {
        "type": "service_drop",
        "id": "DROP_CONS_N_012",
        "consumer_id": "CONS_N_012",
        "color": [
          180,
          83,
          9,
          220
        ],
        "width": 1.5
      }
    },
    {
      "type": "Feature",
      "geometry": {
        "type": "LineString",
        "coordinates": [
          [
            77.20692089786867,
            28.614172823617537,
            222.0
          ],
          [
            77.20692089786867,
            28.614343694722663,
            221.5
          ]
        ]
      },
      "properties": {
        "type": "service_drop",
        "id": "DROP_CONS_N_013",
        "consumer_id": "CONS_N_013",
        "color": [
          180,
          83,
          9,
          220
        ],
        "width": 1.5
      }
    },
    {
      "type": "Feature",
      "geometry": {
        "type": "LineString",
        "coordinates": [
          [
            77.20692089786867,
            28.614172823617537,
            222.0
          ],
          [
            77.20692089786867,
            28.613894033919703,
            228.5
          ]
        ]
      },
      "properties": {
        "type": "service_drop",
        "id": "DROP_CONS_N_014",
        "consumer_id": "CONS_N_014",
        "color": [
          180,
          83,
          9,
          220
        ],
        "width": 1.5
      }
    },
    {
      "type": "Feature",
      "geometry": {
        "type": "LineString",
        "coordinates": [
          [
            77.20738189589751,
            28.614172823617537,
            222.0
          ],
          [
            77.20738189589751,
            28.614343694722663,
            232.0
          ]
        ]
      },
      "properties": {
        "type": "service_drop",
        "id": "DROP_CONS_N_015",
        "consumer_id": "CONS_N_015",
        "color": [
          180,
          83,
          9,
          220
        ],
        "width": 1.5
      }
    },
    {
      "type": "Feature",
      "geometry": {
        "type": "LineString",
        "coordinates": [
          [
            77.20738189589751,
            28.614172823617537,
            222.0
          ],
          [
            77.20738189589751,
            28.613894033919703,
            235.5
          ]
        ]
      },
      "properties": {
        "type": "service_drop",
        "id": "DROP_CONS_N_016",
        "consumer_id": "CONS_N_016",
        "color": [
          180,
          83,
          9,
          220
        ],
        "width": 1.5
      }
    },
    {
      "type": "Feature",
      "geometry": {
        "type": "LineString",
        "coordinates": [
          [
            77.20758678391032,
            28.614172823617537,
            222.0
          ],
          [
            77.20758678391032,
            28.614343694722663,
            225.0
          ]
        ]
      },
      "properties": {
        "type": "service_drop",
        "id": "DROP_CONS_N_017",
        "consumer_id": "CONS_N_017",
        "color": [
          180,
          83,
          9,
          220
        ],
        "width": 1.5
      }
    },
    {
      "type": "Feature",
      "geometry": {
        "type": "LineString",
        "coordinates": [
          [
            77.20758678391032,
            28.614172823617537,
            222.0
          ],
          [
            77.20758678391032,
            28.613894033919703,
            235.5
          ]
        ]
      },
      "properties": {
        "type": "service_drop",
        "id": "DROP_CONS_N_018",
        "consumer_id": "CONS_N_018",
        "color": [
          180,
          83,
          9,
          220
        ],
        "width": 1.5
      }
    },
    {
      "type": "Feature",
      "geometry": {
        "type": "LineString",
        "coordinates": [
          [
            77.20779167192313,
            28.614172823617537,
            222.0
          ],
          [
            77.20779167192313,
            28.614343694722663,
            228.5
          ]
        ]
      },
      "properties": {
        "type": "service_drop",
        "id": "DROP_CONS_N_019",
        "consumer_id": "CONS_N_019",
        "color": [
          180,
          83,
          9,
          220
        ],
        "width": 1.5
      }
    },
    {
      "type": "Feature",
      "geometry": {
        "type": "LineString",
        "coordinates": [
          [
            77.20779167192313,
            28.614172823617537,
            222.0
          ],
          [
            77.20779167192313,
            28.613894033919703,
            228.5
          ]
        ]
      },
      "properties": {
        "type": "service_drop",
        "id": "DROP_CONS_N_020",
        "consumer_id": "CONS_N_020",
        "color": [
          180,
          83,
          9,
          220
        ],
        "width": 1.5
      }
    },
    {
      "type": "Feature",
      "geometry": {
        "type": "LineString",
        "coordinates": [
          [
            77.20818095914747,
            28.614172823617537,
            222.0
          ],
          [
            77.20818095914747,
            28.614343694722663,
            228.5
          ]
        ]
      },
      "properties": {
        "type": "service_drop",
        "id": "DROP_CONS_N_021",
        "consumer_id": "CONS_N_021",
        "color": [
          180,
          83,
          9,
          220
        ],
        "width": 1.5
      }
    },
    {
      "type": "Feature",
      "geometry": {
        "type": "LineString",
        "coordinates": [
          [
            77.20818095914747,
            28.614172823617537,
            222.0
          ],
          [
            77.20818095914747,
            28.613894033919703,
            228.5
          ]
        ]
      },
      "properties": {
        "type": "service_drop",
        "id": "DROP_CONS_N_022",
        "consumer_id": "CONS_N_022",
        "color": [
          180,
          83,
          9,
          220
        ],
        "width": 1.5
      }
    },
    {
      "type": "Feature",
      "geometry": {
        "type": "LineString",
        "coordinates": [
          [
            77.20835511395836,
            28.614172823617537,
            222.0
          ],
          [
            77.20835511395836,
            28.614343694722663,
            228.5
          ]
        ]
      },
      "properties": {
        "type": "service_drop",
        "id": "DROP_CONS_N_023",
        "consumer_id": "CONS_N_023",
        "color": [
          180,
          83,
          9,
          220
        ],
        "width": 1.5
      }
    },
    {
      "type": "Feature",
      "geometry": {
        "type": "LineString",
        "coordinates": [
          [
            77.20835511395836,
            28.614172823617537,
            222.0
          ],
          [
            77.20835511395836,
            28.613894033919703,
            225.0
          ]
        ]
      },
      "properties": {
        "type": "service_drop",
        "id": "DROP_CONS_N_024",
        "consumer_id": "CONS_N_024",
        "color": [
          180,
          83,
          9,
          220
        ],
        "width": 1.5
      }
    },
    {
      "type": "Feature",
      "geometry": {
        "type": "LineString",
        "coordinates": [
          [
            77.20968688604165,
            28.614982213062863,
            222.0
          ],
          [
            77.20968688604165,
            28.61515308416799,
            221.5
          ]
        ]
      },
      "properties": {
        "type": "service_drop",
        "id": "DROP_CONS_S_001",
        "consumer_id": "CONS_S_001",
        "color": [
          180,
          83,
          9,
          220
        ],
        "width": 1.5
      }
    },
    {
      "type": "Feature",
      "geometry": {
        "type": "LineString",
        "coordinates": [
          [
            77.20968688604165,
            28.614982213062863,
            222.0
          ],
          [
            77.20968688604165,
            28.61470342336503,
            225.0
          ]
        ]
      },
      "properties": {
        "type": "service_drop",
        "id": "DROP_CONS_S_002",
        "consumer_id": "CONS_S_002",
        "color": [
          180,
          83,
          9,
          220
        ],
        "width": 1.5
      }
    },
    {
      "type": "Feature",
      "geometry": {
        "type": "LineString",
        "coordinates": [
          [
            77.20986104085254,
            28.614982213062863,
            222.0
          ],
          [
            77.20986104085254,
            28.61515308416799,
            225.0
          ]
        ]
      },
      "properties": {
        "type": "service_drop",
        "id": "DROP_CONS_S_003",
        "consumer_id": "CONS_S_003",
        "color": [
          180,
          83,
          9,
          220
        ],
        "width": 1.5
      }
    },
    {
      "type": "Feature",
      "geometry": {
        "type": "LineString",
        "coordinates": [
          [
            77.20986104085254,
            28.614982213062863,
            222.0
          ],
          [
            77.20986104085254,
            28.61470342336503,
            221.5
          ]
        ]
      },
      "properties": {
        "type": "service_drop",
        "id": "DROP_CONS_S_004",
        "consumer_id": "CONS_S_004",
        "color": [
          180,
          83,
          9,
          220
        ],
        "width": 1.5
      }
    },
    {
      "type": "Feature",
      "geometry": {
        "type": "LineString",
        "coordinates": [
          [
            77.21025032807688,
            28.614982213062863,
            222.0
          ],
          [
            77.21025032807688,
            28.61515308416799,
            228.5
          ]
        ]
      },
      "properties": {
        "type": "service_drop",
        "id": "DROP_CONS_S_005",
        "consumer_id": "CONS_S_005",
        "color": [
          180,
          83,
          9,
          220
        ],
        "width": 1.5
      }
    },
    {
      "type": "Feature",
      "geometry": {
        "type": "LineString",
        "coordinates": [
          [
            77.21025032807688,
            28.614982213062863,
            222.0
          ],
          [
            77.21025032807688,
            28.61470342336503,
            228.5
          ]
        ]
      },
      "properties": {
        "type": "service_drop",
        "id": "DROP_CONS_S_006",
        "consumer_id": "CONS_S_006",
        "color": [
          180,
          83,
          9,
          220
        ],
        "width": 1.5
      }
    },
    {
      "type": "Feature",
      "geometry": {
        "type": "LineString",
        "coordinates": [
          [
            77.2104552160897,
            28.614982213062863,
            222.0
          ],
          [
            77.2104552160897,
            28.61515308416799,
            232.0
          ]
        ]
      },
      "properties": {
        "type": "service_drop",
        "id": "DROP_CONS_S_007",
        "consumer_id": "CONS_S_007",
        "color": [
          180,
          83,
          9,
          220
        ],
        "width": 1.5
      }
    },
    {
      "type": "Feature",
      "geometry": {
        "type": "LineString",
        "coordinates": [
          [
            77.2104552160897,
            28.614982213062863,
            222.0
          ],
          [
            77.2104552160897,
            28.61470342336503,
            228.5
          ]
        ]
      },
      "properties": {
        "type": "service_drop",
        "id": "DROP_CONS_S_008",
        "consumer_id": "CONS_S_008",
        "color": [
          180,
          83,
          9,
          220
        ],
        "width": 1.5
      }
    },
    {
      "type": "Feature",
      "geometry": {
        "type": "LineString",
        "coordinates": [
          [
            77.2106601041025,
            28.614982213062863,
            222.0
          ],
          [
            77.2106601041025,
            28.61515308416799,
            221.5
          ]
        ]
      },
      "properties": {
        "type": "service_drop",
        "id": "DROP_CONS_S_009",
        "consumer_id": "CONS_S_009",
        "color": [
          180,
          83,
          9,
          220
        ],
        "width": 1.5
      }
    },
    {
      "type": "Feature",
      "geometry": {
        "type": "LineString",
        "coordinates": [
          [
            77.2106601041025,
            28.614982213062863,
            222.0
          ],
          [
            77.2106601041025,
            28.61470342336503,
            221.5
          ]
        ]
      },
      "properties": {
        "type": "service_drop",
        "id": "DROP_CONS_S_010",
        "consumer_id": "CONS_S_010",
        "color": [
          180,
          83,
          9,
          220
        ],
        "width": 1.5
      }
    },
    {
      "type": "Feature",
      "geometry": {
        "type": "LineString",
        "coordinates": [
          [
            77.21112110213134,
            28.614982213062863,
            222.0
          ],
          [
            77.21112110213134,
            28.61515308416799,
            228.5
          ]
        ]
      },
      "properties": {
        "type": "service_drop",
        "id": "DROP_CONS_S_011",
        "consumer_id": "CONS_S_011",
        "color": [
          180,
          83,
          9,
          220
        ],
        "width": 1.5
      }
    },
    {
      "type": "Feature",
      "geometry": {
        "type": "LineString",
        "coordinates": [
          [
            77.21112110213134,
            28.614982213062863,
            222.0
          ],
          [
            77.21112110213134,
            28.61470342336503,
            228.5
          ]
        ]
      },
      "properties": {
        "type": "service_drop",
        "id": "DROP_CONS_S_012",
        "consumer_id": "CONS_S_012",
        "color": [
          180,
          83,
          9,
          220
        ],
        "width": 1.5
      }
    },
    {
      "type": "Feature",
      "geometry": {
        "type": "LineString",
        "coordinates": [
          [
            77.20968688604165,
            28.614172823617537,
            222.0
          ],
          [
            77.20968688604165,
            28.614343694722663,
            228.5
          ]
        ]
      },
      "properties": {
        "type": "service_drop",
        "id": "DROP_CONS_S_013",
        "consumer_id": "CONS_S_013",
        "color": [
          180,
          83,
          9,
          220
        ],
        "width": 1.5
      }
    },
    {
      "type": "Feature",
      "geometry": {
        "type": "LineString",
        "coordinates": [
          [
            77.20968688604165,
            28.614172823617537,
            222.0
          ],
          [
            77.20968688604165,
            28.613894033919703,
            225.0
          ]
        ]
      },
      "properties": {
        "type": "service_drop",
        "id": "DROP_CONS_S_014",
        "consumer_id": "CONS_S_014",
        "color": [
          180,
          83,
          9,
          220
        ],
        "width": 1.5
      }
    },
    {
      "type": "Feature",
      "geometry": {
        "type": "LineString",
        "coordinates": [
          [
            77.20986104085254,
            28.614172823617537,
            222.0
          ],
          [
            77.20986104085254,
            28.614343694722663,
            225.0
          ]
        ]
      },
      "properties": {
        "type": "service_drop",
        "id": "DROP_CONS_S_015",
        "consumer_id": "CONS_S_015",
        "color": [
          180,
          83,
          9,
          220
        ],
        "width": 1.5
      }
    },
    {
      "type": "Feature",
      "geometry": {
        "type": "LineString",
        "coordinates": [
          [
            77.20986104085254,
            28.614172823617537,
            222.0
          ],
          [
            77.20986104085254,
            28.613894033919703,
            221.5
          ]
        ]
      },
      "properties": {
        "type": "service_drop",
        "id": "DROP_CONS_S_016",
        "consumer_id": "CONS_S_016",
        "color": [
          180,
          83,
          9,
          220
        ],
        "width": 1.5
      }
    },
    {
      "type": "Feature",
      "geometry": {
        "type": "LineString",
        "coordinates": [
          [
            77.21025032807688,
            28.614172823617537,
            222.0
          ],
          [
            77.21025032807688,
            28.614343694722663,
            228.5
          ]
        ]
      },
      "properties": {
        "type": "service_drop",
        "id": "DROP_CONS_S_017",
        "consumer_id": "CONS_S_017",
        "color": [
          180,
          83,
          9,
          220
        ],
        "width": 1.5
      }
    },
    {
      "type": "Feature",
      "geometry": {
        "type": "LineString",
        "coordinates": [
          [
            77.21025032807688,
            28.614172823617537,
            222.0
          ],
          [
            77.21025032807688,
            28.613894033919703,
            221.5
          ]
        ]
      },
      "properties": {
        "type": "service_drop",
        "id": "DROP_CONS_S_018",
        "consumer_id": "CONS_S_018",
        "color": [
          180,
          83,
          9,
          220
        ],
        "width": 1.5
      }
    },
    {
      "type": "Feature",
      "geometry": {
        "type": "LineString",
        "coordinates": [
          [
            77.2104552160897,
            28.614172823617537,
            222.0
          ],
          [
            77.2104552160897,
            28.614343694722663,
            221.5
          ]
        ]
      },
      "properties": {
        "type": "service_drop",
        "id": "DROP_CONS_S_019",
        "consumer_id": "CONS_S_019",
        "color": [
          180,
          83,
          9,
          220
        ],
        "width": 1.5
      }
    },
    {
      "type": "Feature",
      "geometry": {
        "type": "LineString",
        "coordinates": [
          [
            77.2104552160897,
            28.614172823617537,
            222.0
          ],
          [
            77.2104552160897,
            28.613894033919703,
            235.5
          ]
        ]
      },
      "properties": {
        "type": "service_drop",
        "id": "DROP_CONS_S_020",
        "consumer_id": "CONS_S_020",
        "color": [
          180,
          83,
          9,
          220
        ],
        "width": 1.5
      }
    },
    {
      "type": "Feature",
      "geometry": {
        "type": "LineString",
        "coordinates": [
          [
            77.2106601041025,
            28.614172823617537,
            222.0
          ],
          [
            77.2106601041025,
            28.614343694722663,
            228.5
          ]
        ]
      },
      "properties": {
        "type": "service_drop",
        "id": "DROP_CONS_S_021",
        "consumer_id": "CONS_S_021",
        "color": [
          180,
          83,
          9,
          220
        ],
        "width": 1.5
      }
    },
    {
      "type": "Feature",
      "geometry": {
        "type": "LineString",
        "coordinates": [
          [
            77.2106601041025,
            28.614172823617537,
            222.0
          ],
          [
            77.2106601041025,
            28.613894033919703,
            228.5
          ]
        ]
      },
      "properties": {
        "type": "service_drop",
        "id": "DROP_CONS_S_022",
        "consumer_id": "CONS_S_022",
        "color": [
          180,
          83,
          9,
          220
        ],
        "width": 1.5
      }
    },
    {
      "type": "Feature",
      "geometry": {
        "type": "LineString",
        "coordinates": [
          [
            77.21112110213134,
            28.614172823617537,
            222.0
          ],
          [
            77.21112110213134,
            28.614343694722663,
            232.0
          ]
        ]
      },
      "properties": {
        "type": "service_drop",
        "id": "DROP_CONS_S_023",
        "consumer_id": "CONS_S_023",
        "color": [
          180,
          83,
          9,
          220
        ],
        "width": 1.5
      }
    },
    {
      "type": "Feature",
      "geometry": {
        "type": "LineString",
        "coordinates": [
          [
            77.21112110213134,
            28.614172823617537,
            222.0
          ],
          [
            77.21112110213134,
            28.613894033919703,
            228.5
          ]
        ]
      },
      "properties": {
        "type": "service_drop",
        "id": "DROP_CONS_S_024",
        "consumer_id": "CONS_S_024",
        "color": [
          180,
          83,
          9,
          220
        ],
        "width": 1.5
      }
    }
  ]
}